ONEWEB-0205             
1 48226U 21031S   26192.79992239  .00000043  00000+0  82797-4 0  9992
2 48226  87.8974 284.7955 0002265  99.4917 260.6469 13.14502414251502
ONEWEB-0206             
1 48227U 21031T   26193.22966605  .00000138  00000+0  33752-3 0  9991
2 48227  87.8970 284.7095 0001927 101.5031 258.6315 13.14502295251515
ONEWEB-0182             
1 48228U 21031U   26193.22490481  .00000000  00000+0 -34980-4 0  9990
2 48228  87.8961 284.7181 0001917  95.8392 264.2956 13.14504245251720
ONEWEB-0186             
1 48229U 21031V   26193.23601421  .00000205  00000+0  51916-3 0  9993
2 48229  87.8978 284.7081 0002157  97.9777 262.1598 13.14503114251672
ONEWEB-0181             
1 48230U 21031W   26193.21379461 -.00000290  00000+0 -81693-3 0  9990
2 48230  87.8958 284.7372 0002280  99.3882 260.7506 13.14502687251526
ONEWEB-0188             
1 48231U 21031X   26192.79516178  .00000104  00000+0  24703-3 0  9992
2 48231  87.8966 284.8197 0002043 100.3508 259.7852 13.14502215251379
ONEWEB-0220             
1 48232U 21031Y   26193.21538427 -.00000316  00000+0 -88615-3 0  9991
2 48232  87.8978 284.7140 0002380  95.6479 264.4923 13.14502670251699
ONEWEB-0165             
1 48233U 21031Z   26192.78724272  .00000103  00000+0  24338-3 0  9992
2 48233  87.8971 284.8099 0002454 102.6803 257.4602 13.14502546251596
ONEWEB-0199             
1 48234U 21031AA  26192.77138065  .00000025  00000+0  32020-4 0  9992
2 48234  87.8975 284.8003 0001914  99.9221 260.2125 13.14501396251491
ONEWEB-0203             
1 48235U 21031AB  26193.21856513 -.00000122  00000+0 -36391-3 0  9992
2 48235  87.8969 284.7141 0001969 105.4962 254.6385 13.14501336251569
ONEWEB-0197             
1 48236U 21031AC  26192.81246312 -.00000208  00000+0 -59531-3 0  9994
2 48236  87.8966 284.7793 0002030  91.4968 268.6395 13.14501622251429
ONEWEB-0194             
1 48237U 21031AD  26192.79199010  .00000233  00000+0  59302-3 0  9996
2 48237  87.8968 284.8068 0001841 105.9202 254.2130 13.14503902251598
ONEWEB-0193             
1 48238U 21031AE  26192.80785181 -.00000141  00000+0 -41492-3 0  9990
2 48238  87.8972 284.7934 0001781 110.6357 249.4964 13.14501820251545
ONEWEB-0191             
1 48239U 21031AF  26193.19953507 -.00000207  00000+0 -59404-3 0  9998
2 48239  87.8978 284.7157 0001914  95.1409 264.9940 13.14506206251451
ONEWEB-0195             
1 48240U 21031AG  26192.79595826  .00000078  00000+0  17648-3 0  9999
2 48240  87.8976 284.7968 0002455 100.4030 259.7376 13.14502878251380
ONEWEB-0201             
1 48241U 21031AH  26193.24090422  .00000249  00000+0  63622-3 0  9996
2 48241  87.8972 284.7221 0002084  91.5902 268.5467 13.14502719251670
