{"fetched_at":"2026-07-12T17:32:24.168Z","source":"https://celestrak.org/NORAD/elements/gp.php?GROUP=oneweb&FORMAT=JSON","constellation":"oneweb","records":[{"OBJECT_NAME":"ONEWEB-0205","OBJECT_ID":"2021-031S","EPOCH":"2026-07-11T19:11:53.294496","CLASSIFICATION_TYPE":"U","MEAN_MOTION":13.14502414,"ECCENTRICITY":0.00022655,"INCLINATION":87.8974,"RA_OF_ASC_NODE":284.7955,"ARG_OF_PERICENTER":99.4917,"MEAN_ANOMALY":260.6469,"EPHEMERIS_TYPE":0,"NORAD_CAT_ID":48226,"ELEMENT_SET_NO":999,"REV_AT_EPOCH":25150,"BSTAR":0.000082797416,"MEAN_MOTION_DOT":4.3e-7,"MEAN_MOTION_DDOT":0},{"OBJECT_NAME":"ONEWEB-0206","OBJECT_ID":"2021-031T","EPOCH":"2026-07-12T05:30:43.146720","CLASSIFICATION_TYPE":"U","MEAN_MOTION":13.14502295,"ECCENTRICITY":0.00019272,"INCLINATION":87.897,"RA_OF_ASC_NODE":284.7095,"ARG_OF_PERICENTER":101.5031,"MEAN_ANOMALY":258.6315,"EPHEMERIS_TYPE":0,"NORAD_CAT_ID":48227,"ELEMENT_SET_NO":999,"REV_AT_EPOCH":25151,"BSTAR":0.00033751759,"MEAN_MOTION_DOT":0.00000138,"MEAN_MOTION_DDOT":0},{"OBJECT_NAME":"ONEWEB-0182","OBJECT_ID":"2021-031U","EPOCH":"2026-07-12T05:23:51.775584","CLASSIFICATION_TYPE":"U","MEAN_MOTION":13.14504245,"ECCENTRICITY":0.00019171,"INCLINATION":87.8961,"RA_OF_ASC_NODE":284.7181,"ARG_OF_PERICENTER":95.8392,"MEAN_ANOMALY":264.2956,"EPHEMERIS_TYPE":0,"NORAD_CAT_ID":48228,"ELEMENT_SET_NO":999,"REV_AT_EPOCH":25172,"BSTAR":-0.000034980043,"MEAN_MOTION_DOT":0,"MEAN_MOTION_DDOT":0},{"OBJECT_NAME":"ONEWEB-0186","OBJECT_ID":"2021-031V","EPOCH":"2026-07-12T05:39:51.627744","CLASSIFICATION_TYPE":"U","MEAN_MOTION":13.14503114,"ECCENTRICITY":0.0002157,"INCLINATION":87.8978,"RA_OF_ASC_NODE":284.7081,"ARG_OF_PERICENTER":97.9777,"MEAN_ANOMALY":262.1598,"EPHEMERIS_TYPE":0,"NORAD_CAT_ID":48229,"ELEMENT_SET_NO":999,"REV_AT_EPOCH":25167,"BSTAR":0.00051916,"MEAN_MOTION_DOT":0.00000205,"MEAN_MOTION_DDOT":0},{"OBJECT_NAME":"ONEWEB-0181","OBJECT_ID":"2021-031W","EPOCH":"2026-07-12T05:07:51.854304","CLASSIFICATION_TYPE":"U","MEAN_MOTION":13.14502687,"ECCENTRICITY":0.00022802,"INCLINATION":87.8958,"RA_OF_ASC_NODE":284.7372,"ARG_OF_PERICENTER":99.3882,"MEAN_ANOMALY":260.7506,"EPHEMERIS_TYPE":0,"NORAD_CAT_ID":48230,"ELEMENT_SET_NO":999,"REV_AT_EPOCH":25152,"BSTAR":-0.00081693375,"MEAN_MOTION_DOT":-0.0000029,"MEAN_MOTION_DDOT":0},{"OBJECT_NAME":"ONEWEB-0188","OBJECT_ID":"2021-031X","EPOCH":"2026-07-11T19:05:01.977792","CLASSIFICATION_TYPE":"U","MEAN_MOTION":13.14502215,"ECCENTRICITY":0.00020438,"INCLINATION":87.8966,"RA_OF_ASC_NODE":284.8197,"ARG_OF_PERICENTER":100.3508,"MEAN_ANOMALY":259.7852,"EPHEMERIS_TYPE":0,"NORAD_CAT_ID":48231,"ELEMENT_SET_NO":999,"REV_AT_EPOCH":25137,"BSTAR":0.00024703324,"MEAN_MOTION_DOT":0.00000104,"MEAN_MOTION_DDOT":0},{"OBJECT_NAME":"ONEWEB-0220","OBJECT_ID":"2021-031Y","EPOCH":"2026-07-12T05:10:09.200928","CLASSIFICATION_TYPE":"U","MEAN_MOTION":13.1450267,"ECCENTRICITY":0.00023802,"INCLINATION":87.8978,"RA_OF_ASC_NODE":284.714,"ARG_OF_PERICENTER":95.6479,"MEAN_ANOMALY":264.4923,"EPHEMERIS_TYPE":0,"NORAD_CAT_ID":48232,"ELEMENT_SET_NO":999,"REV_AT_EPOCH":25169,"BSTAR":-0.00088615081,"MEAN_MOTION_DOT":-0.00000316,"MEAN_MOTION_DDOT":0},{"OBJECT_NAME":"ONEWEB-0165","OBJECT_ID":"2021-031Z","EPOCH":"2026-07-11T18:53:37.771008","CLASSIFICATION_TYPE":"U","MEAN_MOTION":13.14502546,"ECCENTRICITY":0.00024545,"INCLINATION":87.8971,"RA_OF_ASC_NODE":284.8099,"ARG_OF_PERICENTER":102.6803,"MEAN_ANOMALY":257.4602,"EPHEMERIS_TYPE":0,"NORAD_CAT_ID":48233,"ELEMENT_SET_NO":999,"REV_AT_EPOCH":25159,"BSTAR":0.000243385,"MEAN_MOTION_DOT":0.00000103,"MEAN_MOTION_DDOT":0},{"OBJECT_NAME":"ONEWEB-0199","OBJECT_ID":"2021-031AA","EPOCH":"2026-07-11T18:30:47.288160","CLASSIFICATION_TYPE":"U","MEAN_MOTION":13.14501396,"ECCENTRICITY":0.00019144,"INCLINATION":87.8975,"RA_OF_ASC_NODE":284.8003,"ARG_OF_PERICENTER":99.9221,"MEAN_ANOMALY":260.2125,"EPHEMERIS_TYPE":0,"NORAD_CAT_ID":48234,"ELEMENT_SET_NO":999,"REV_AT_EPOCH":25149,"BSTAR":0.000032020384,"MEAN_MOTION_DOT":2.5e-7,"MEAN_MOTION_DDOT":0},{"OBJECT_NAME":"ONEWEB-0203","OBJECT_ID":"2021-031AB","EPOCH":"2026-07-12T05:14:44.027232","CLASSIFICATION_TYPE":"U","MEAN_MOTION":13.14501336,"ECCENTRICITY":0.00019696,"INCLINATION":87.8969,"RA_OF_ASC_NODE":284.7141,"ARG_OF_PERICENTER":105.4962,"MEAN_ANOMALY":254.6385,"EPHEMERIS_TYPE":0,"NORAD_CAT_ID":48235,"ELEMENT_SET_NO":999,"REV_AT_EPOCH":25156,"BSTAR":-0.00036391395,"MEAN_MOTION_DOT":-0.00000122,"MEAN_MOTION_DDOT":0},{"OBJECT_NAME":"ONEWEB-0197","OBJECT_ID":"2021-031AC","EPOCH":"2026-07-11T19:29:56.813568","CLASSIFICATION_TYPE":"U","MEAN_MOTION":13.14501622,"ECCENTRICITY":0.00020301,"INCLINATION":87.8966,"RA_OF_ASC_NODE":284.7793,"ARG_OF_PERICENTER":91.4968,"MEAN_ANOMALY":268.6395,"EPHEMERIS_TYPE":0,"NORAD_CAT_ID":48236,"ELEMENT_SET_NO":999,"REV_AT_EPOCH":25142,"BSTAR":-0.00059530713,"MEAN_MOTION_DOT":-0.00000208,"MEAN_MOTION_DDOT":0},{"OBJECT_NAME":"ONEWEB-0194","OBJECT_ID":"2021-031AD","EPOCH":"2026-07-11T19:00:27.944640","CLASSIFICATION_TYPE":"U","MEAN_MOTION":13.14503902,"ECCENTRICITY":0.00018413,"INCLINATION":87.8968,"RA_OF_ASC_NODE":284.8068,"ARG_OF_PERICENTER":105.9202,"MEAN_ANOMALY":254.213,"EPHEMERIS_TYPE":0,"NORAD_CAT_ID":48237,"ELEMENT_SET_NO":999,"REV_AT_EPOCH":25159,"BSTAR":0.00059301821,"MEAN_MOTION_DOT":0.00000233,"MEAN_MOTION_DDOT":0},{"OBJECT_NAME":"ONEWEB-0193","OBJECT_ID":"2021-031AE","EPOCH":"2026-07-11T19:23:18.396384","CLASSIFICATION_TYPE":"U","MEAN_MOTION":13.1450182,"ECCENTRICITY":0.00017811,"INCLINATION":87.8972,"RA_OF_ASC_NODE":284.7934,"ARG_OF_PERICENTER":110.6357,"MEAN_ANOMALY":249.4964,"EPHEMERIS_TYPE":0,"NORAD_CAT_ID":48238,"ELEMENT_SET_NO":999,"REV_AT_EPOCH":25154,"BSTAR":-0.00041492382,"MEAN_MOTION_DOT":-0.00000141,"MEAN_MOTION_DDOT":0},{"OBJECT_NAME":"ONEWEB-0191","OBJECT_ID":"2021-031AF","EPOCH":"2026-07-12T04:47:19.830048","CLASSIFICATION_TYPE":"U","MEAN_MOTION":13.14506206,"ECCENTRICITY":0.0001914,"INCLINATION":87.8978,"RA_OF_ASC_NODE":284.7157,"ARG_OF_PERICENTER":95.1409,"MEAN_ANOMALY":264.994,"EPHEMERIS_TYPE":0,"NORAD_CAT_ID":48239,"ELEMENT_SET_NO":999,"REV_AT_EPOCH":25145,"BSTAR":-0.00059404,"MEAN_MOTION_DOT":-0.00000207,"MEAN_MOTION_DDOT":0},{"OBJECT_NAME":"ONEWEB-0195","OBJECT_ID":"2021-031AG","EPOCH":"2026-07-11T19:06:10.793664","CLASSIFICATION_TYPE":"U","MEAN_MOTION":13.14502878,"ECCENTRICITY":0.00024555,"INCLINATION":87.8976,"RA_OF_ASC_NODE":284.7968,"ARG_OF_PERICENTER":100.403,"MEAN_ANOMALY":259.7376,"EPHEMERIS_TYPE":0,"NORAD_CAT_ID":48240,"ELEMENT_SET_NO":999,"REV_AT_EPOCH":25138,"BSTAR":0.00017647827,"MEAN_MOTION_DOT":7.8e-7,"MEAN_MOTION_DDOT":0},{"OBJECT_NAME":"ONEWEB-0201","OBJECT_ID":"2021-031AH","EPOCH":"2026-07-12T05:46:54.124608","CLASSIFICATION_TYPE":"U","MEAN_MOTION":13.14502719,"ECCENTRICITY":0.0002084,"INCLINATION":87.8972,"RA_OF_ASC_NODE":284.7221,"ARG_OF_PERICENTER":91.5902,"MEAN_ANOMALY":268.5467,"EPHEMERIS_TYPE":0,"NORAD_CAT_ID":48241,"ELEMENT_SET_NO":999,"REV_AT_EPOCH":25167,"BSTAR":0.00063622,"MEAN_MOTION_DOT":0.00000249,"MEAN_MOTION_DDOT":0}]}
